EAGLET-I                
1 43790U 18099AJ  26068.68676861  .00006017  00000+0  35262-3 0  9994
2 43790  97.4369 120.9821 0010486 336.8524  23.2233 15.12108144397298
STARLINK-4476           
1 53419U 22097AH  26068.41890808 -.00000634  00000+0 -21773-4 0  9990
2 53419  53.2170 115.3340 0001301  91.7857 268.3285 15.08837462198580
